STARLINK-36517          
1 67454U 26008K   26036.75002315 -.01888842  00000+0 -32871-1 0  9994
2 67454  43.0007  27.7641 0001031 248.0591  77.8746 15.53482206  4686
STARLINK-36516          
1 67455U 26008L   26036.75002315 -.02105482  00000+0 -32975-1 0  9993
2 67455  43.0003  27.6468 0001476 261.5558 111.5413 15.56128323  4660
STARLINK-36493          
1 67456U 26008M   26036.75002315 -.02108535  00000+0 -31975-1 0  9995
2 67456  43.0005  27.6251 0001438 266.3086 115.6591 15.56990122  4666
STARLINK-36529          
1 67457U 26008N   26036.75002315 -.02073253  00000+0 -26184-1 0  9990
2 67457  43.0005  27.4598 0001170 275.9123 172.8100 15.62243379  4663
STARLINK-36528          
1 67458U 26008P   26036.75002315 -.02089091  00000+0 -20239-1 0  9993
2 67458  43.0005  27.3264 0001137 267.9268 234.5909 15.68803874  4680
STARLINK-36546          
1 67459U 26008Q   26036.75002315 -.02073560  00000+0 -26132-1 0  9996
2 67459  43.0002  27.4435 0001165 276.3142 178.7126 15.62297660  4667
STARLINK-36523          
1 67460U 26008R   26036.75002315 -.02074729  00000+0 -25504-1 0  9998
2 67460  43.0004  27.4233 0001135 273.3795 189.8466 15.62929016  4684
STARLINK-36522          
1 67461U 26008S   26036.75002315 -.02107990  00000+0 -32545-1 0  9999
2 67461  43.0007  27.6132 0001431 269.9081 116.5916 15.56513935  4663
STARLINK-36504          
1 67462U 26008T   26035.00868680  .00209146  00000+0  13425-2 0  9991
2 67462  43.0000  37.8305 0002675 190.7377 169.3435 15.74843030  4396
STARLINK-36505          
1 67463U 26008U   26036.75002315 -.02080210  00000+0 -23967-1 0  9994
2 67463  43.0000  27.3732 0001101 268.4297 215.2730 15.64559996  4665
STARLINK-36421          
1 67464U 26008V   26036.75002315 -.02110502  00000+0 -32737-1 0  9998
2 67464  43.0006  27.6036 0001423 268.9667 121.4548 15.56393193  4666
STARLINK-36437          
1 67465U 26008W   26036.75002315 -.02081096  00000+0 -23606-1 0  9999
2 67465  43.0001  27.3546 0001069 268.7021 222.0325 15.64949151  4664
