CCSDS_OMM_VERS = 2.0
CREATION_DATE  = 
ORIGINATOR     = 

OBJECT_NAME    = STARLINK-36517
OBJECT_ID      = 2026-008K
CENTER_NAME    = EARTH
REF_FRAME      = TEME
TIME_SYSTEM    = UTC
MEAN_ELEMENT_THEORY = SGP/SGP4

EPOCH          = 2026-02-05T18:00:02.000160
MEAN_MOTION    = 15.53482206
ECCENTRICITY   = .00010311
INCLINATION    = 43.0007
RA_OF_ASC_NODE = 27.7641
ARG_OF_PERICENTER = 248.0591
MEAN_ANOMALY   = 77.8746

EPHEMERIS_TYPE = 0
CLASSIFICATION_TYPE = U
NORAD_CAT_ID   = 67454
ELEMENT_SET_NO = 999
REV_AT_EPOCH   = 468
BSTAR          = -.32870731E-1
MEAN_MOTION_DOT = -.1888842E-1
MEAN_MOTION_DDOT = 0

CCSDS_OMM_VERS = 2.0
CREATION_DATE  = 
ORIGINATOR     = 

OBJECT_NAME    = STARLINK-36516
OBJECT_ID      = 2026-008L
CENTER_NAME    = EARTH
REF_FRAME      = TEME
TIME_SYSTEM    = UTC
MEAN_ELEMENT_THEORY = SGP/SGP4

EPOCH          = 2026-02-05T18:00:02.000160
MEAN_MOTION    = 15.56128323
ECCENTRICITY   = .00014762
INCLINATION    = 43.0003
RA_OF_ASC_NODE = 27.6468
ARG_OF_PERICENTER = 261.5558
MEAN_ANOMALY   = 111.5413

EPHEMERIS_TYPE = 0
CLASSIFICATION_TYPE = U
NORAD_CAT_ID   = 67455
ELEMENT_SET_NO = 999
REV_AT_EPOCH   = 466
BSTAR          = -.32975108E-1
MEAN_MOTION_DOT = -.2105482E-1
MEAN_MOTION_DDOT = 0

CCSDS_OMM_VERS = 2.0
CREATION_DATE  = 
ORIGINATOR     = 

OBJECT_NAME    = STARLINK-36493
OBJECT_ID      = 2026-008M
CENTER_NAME    = EARTH
REF_FRAME      = TEME
TIME_SYSTEM    = UTC
MEAN_ELEMENT_THEORY = SGP/SGP4

EPOCH          = 2026-02-05T18:00:02.000160
MEAN_MOTION    = 15.56990122
ECCENTRICITY   = .00014382
INCLINATION    = 43.0005
RA_OF_ASC_NODE = 27.6251
ARG_OF_PERICENTER = 266.3086
MEAN_ANOMALY   = 115.6591

EPHEMERIS_TYPE = 0
CLASSIFICATION_TYPE = U
NORAD_CAT_ID   = 67456
ELEMENT_SET_NO = 999
REV_AT_EPOCH   = 466
BSTAR          = -.31975269E-1
MEAN_MOTION_DOT = -.2108535E-1
MEAN_MOTION_DDOT = 0

CCSDS_OMM_VERS = 2.0
CREATION_DATE  = 
ORIGINATOR     = 

OBJECT_NAME    = STARLINK-36529
OBJECT_ID      = 2026-008N
CENTER_NAME    = EARTH
REF_FRAME      = TEME
TIME_SYSTEM    = UTC
MEAN_ELEMENT_THEORY = SGP/SGP4

EPOCH          = 2026-02-05T18:00:02.000160
MEAN_MOTION    = 15.62243379
ECCENTRICITY   = .00011709
INCLINATION    = 43.0005
RA_OF_ASC_NODE = 27.4598
ARG_OF_PERICENTER = 275.9123
MEAN_ANOMALY   = 172.8100

EPHEMERIS_TYPE = 0
CLASSIFICATION_TYPE = U
NORAD_CAT_ID   = 67457
ELEMENT_SET_NO = 999
REV_AT_EPOCH   = 466
BSTAR          = -.26184058E-1
MEAN_MOTION_DOT = -.2073253E-1
MEAN_MOTION_DDOT = 0

CCSDS_OMM_VERS = 2.0
CREATION_DATE  = 
ORIGINATOR     = 

OBJECT_NAME    = STARLINK-36528
OBJECT_ID      = 2026-008P
CENTER_NAME    = EARTH
REF_FRAME      = TEME
TIME_SYSTEM    = UTC
MEAN_ELEMENT_THEORY = SGP/SGP4

EPOCH          = 2026-02-05T18:00:02.000160
MEAN_MOTION    = 15.68803874
ECCENTRICITY   = .00011371
INCLINATION    = 43.0005
RA_OF_ASC_NODE = 27.3264
ARG_OF_PERICENTER = 267.9268
MEAN_ANOMALY   = 234.5909

EPHEMERIS_TYPE = 0
CLASSIFICATION_TYPE = U
NORAD_CAT_ID   = 67458
ELEMENT_SET_NO = 999
REV_AT_EPOCH   = 468
BSTAR          = -.20239086E-1
MEAN_MOTION_DOT = -.2089091E-1
MEAN_MOTION_DDOT = 0

CCSDS_OMM_VERS = 2.0
CREATION_DATE  = 
ORIGINATOR     = 

OBJECT_NAME    = STARLINK-36546
OBJECT_ID      = 2026-008Q
CENTER_NAME    = EARTH
REF_FRAME      = TEME
TIME_SYSTEM    = UTC
MEAN_ELEMENT_THEORY = SGP/SGP4

EPOCH          = 2026-02-05T18:00:02.000160
MEAN_MOTION    = 15.62297660
ECCENTRICITY   = .00011658
INCLINATION    = 43.0002
RA_OF_ASC_NODE = 27.4435
ARG_OF_PERICENTER = 276.3142
MEAN_ANOMALY   = 178.7126

EPHEMERIS_TYPE = 0
CLASSIFICATION_TYPE = U
NORAD_CAT_ID   = 67459
ELEMENT_SET_NO = 999
REV_AT_EPOCH   = 466
BSTAR          = -.26132495E-1
MEAN_MOTION_DOT = -.207356E-1
MEAN_MOTION_DDOT = 0

CCSDS_OMM_VERS = 2.0
CREATION_DATE  = 
ORIGINATOR     = 

OBJECT_NAME    = STARLINK-36523
OBJECT_ID      = 2026-008R
CENTER_NAME    = EARTH
REF_FRAME      = TEME
TIME_SYSTEM    = UTC
MEAN_ELEMENT_THEORY = SGP/SGP4

EPOCH          = 2026-02-05T18:00:02.000160
MEAN_MOTION    = 15.62929016
ECCENTRICITY   = .00011357
INCLINATION    = 43.0004
RA_OF_ASC_NODE = 27.4233
ARG_OF_PERICENTER = 273.3795
MEAN_ANOMALY   = 189.8466

EPHEMERIS_TYPE = 0
CLASSIFICATION_TYPE = U
NORAD_CAT_ID   = 67460
ELEMENT_SET_NO = 999
REV_AT_EPOCH   = 468
BSTAR          = -.25504185E-1
MEAN_MOTION_DOT = -.2074729E-1
MEAN_MOTION_DDOT = 0

CCSDS_OMM_VERS = 2.0
CREATION_DATE  = 
ORIGINATOR     = 

OBJECT_NAME    = STARLINK-36522
OBJECT_ID      = 2026-008S
CENTER_NAME    = EARTH
REF_FRAME      = TEME
TIME_SYSTEM    = UTC
MEAN_ELEMENT_THEORY = SGP/SGP4

EPOCH          = 2026-02-05T18:00:02.000160
MEAN_MOTION    = 15.56513935
ECCENTRICITY   = .00014315
INCLINATION    = 43.0007
RA_OF_ASC_NODE = 27.6132
ARG_OF_PERICENTER = 269.9081
MEAN_ANOMALY   = 116.5916

EPHEMERIS_TYPE = 0
CLASSIFICATION_TYPE = U
NORAD_CAT_ID   = 67461
ELEMENT_SET_NO = 999
REV_AT_EPOCH   = 466
BSTAR          = -.3254497E-1
MEAN_MOTION_DOT = -.210799E-1
MEAN_MOTION_DDOT = 0

CCSDS_OMM_VERS = 2.0
CREATION_DATE  = 
ORIGINATOR     = 

OBJECT_NAME    = STARLINK-36504
OBJECT_ID      = 2026-008T
CENTER_NAME    = EARTH
REF_FRAME      = TEME
TIME_SYSTEM    = UTC
MEAN_ELEMENT_THEORY = SGP/SGP4

EPOCH          = 2026-02-04T00:12:30.539520
MEAN_MOTION    = 15.74843030
ECCENTRICITY   = .00026759
INCLINATION    = 43.0000
RA_OF_ASC_NODE = 37.8305
ARG_OF_PERICENTER = 190.7377
MEAN_ANOMALY   = 169.3435

EPHEMERIS_TYPE = 0
CLASSIFICATION_TYPE = U
NORAD_CAT_ID   = 67462
ELEMENT_SET_NO = 999
REV_AT_EPOCH   = 439
BSTAR          = .13424593E-2
MEAN_MOTION_DOT = .209146E-2
MEAN_MOTION_DDOT = 0

CCSDS_OMM_VERS = 2.0
CREATION_DATE  = 
ORIGINATOR     = 

OBJECT_NAME    = STARLINK-36505
OBJECT_ID      = 2026-008U
CENTER_NAME    = EARTH
REF_FRAME      = TEME
TIME_SYSTEM    = UTC
MEAN_ELEMENT_THEORY = SGP/SGP4

EPOCH          = 2026-02-05T18:00:02.000160
MEAN_MOTION    = 15.64559996
ECCENTRICITY   = .00011015
INCLINATION    = 43.0000
RA_OF_ASC_NODE = 27.3732
ARG_OF_PERICENTER = 268.4297
MEAN_ANOMALY   = 215.2730

EPHEMERIS_TYPE = 0
CLASSIFICATION_TYPE = U
NORAD_CAT_ID   = 67463
ELEMENT_SET_NO = 999
REV_AT_EPOCH   = 466
BSTAR          = -.23967408E-1
MEAN_MOTION_DOT = -.208021E-1
MEAN_MOTION_DDOT = 0

CCSDS_OMM_VERS = 2.0
CREATION_DATE  = 
ORIGINATOR     = 

OBJECT_NAME    = STARLINK-36421
OBJECT_ID      = 2026-008V
CENTER_NAME    = EARTH
REF_FRAME      = TEME
TIME_SYSTEM    = UTC
MEAN_ELEMENT_THEORY = SGP/SGP4

EPOCH          = 2026-02-05T18:00:02.000160
MEAN_MOTION    = 15.56393193
ECCENTRICITY   = .0001423
INCLINATION    = 43.0006
RA_OF_ASC_NODE = 27.6036
ARG_OF_PERICENTER = 268.9667
MEAN_ANOMALY   = 121.4548

EPHEMERIS_TYPE = 0
CLASSIFICATION_TYPE = U
NORAD_CAT_ID   = 67464
ELEMENT_SET_NO = 999
REV_AT_EPOCH   = 466
BSTAR          = -.32736972E-1
MEAN_MOTION_DOT = -.2110502E-1
MEAN_MOTION_DDOT = 0

CCSDS_OMM_VERS = 2.0
CREATION_DATE  = 
ORIGINATOR     = 

OBJECT_NAME    = STARLINK-36437
OBJECT_ID      = 2026-008W
CENTER_NAME    = EARTH
REF_FRAME      = TEME
TIME_SYSTEM    = UTC
MEAN_ELEMENT_THEORY = SGP/SGP4

EPOCH          = 2026-02-05T18:00:02.000160
MEAN_MOTION    = 15.64949151
ECCENTRICITY   = .00010697
INCLINATION    = 43.0001
RA_OF_ASC_NODE = 27.3546
ARG_OF_PERICENTER = 268.7021
MEAN_ANOMALY   = 222.0325

EPHEMERIS_TYPE = 0
CLASSIFICATION_TYPE = U
NORAD_CAT_ID   = 67465
ELEMENT_SET_NO = 999
REV_AT_EPOCH   = 466
BSTAR          = -.23606223E-1
MEAN_MOTION_DOT = -.2081096E-1
MEAN_MOTION_DDOT = 0

